NORAD_CAT_ID,OBJECT_NAME,OBJECT_TYPE,EPOCH,MEAN_MOTION,ECCENTRICITY,INCLINATION,RA_OF_ASC_NODE,ARG_OF_PERICENTER,MEAN_ANOMALY,BSTAR,MEAN_MOTION_DOT,MEAN_MOTION_DDOT,TLE_LINE0,TLE_LINE1,TLE_LINE2,SEMIMAJOR_AXIS,PERIOD,APOGEE,PERIGEE,DECAYED
52555.0,STARLINK-3949,PAYLOAD,2024-03-03 14:38:19,15.0883698,0.0001558,53.2174,193.5893,102.0982,258.0185,3.2633e-05,2.31e-06,0.0,0 STARLINK-3949,1 52555U 22051Y   24063.60994800  .00000231  00000-0  32633-4 0  9990,2 52555  53.2174 193.5893 0001558 102.0982 258.0185 15.08836980100328,6917.89,95.438,540.832,538.677,0.0
52555.0,STARLINK-3949,PAYLOAD,2024-03-03 16:13:42,15.08843255,0.0001441,53.2171,193.2891,98.5962,261.5193,8.2992e-05,1.033e-05,0.0,0 STARLINK-3949,1 52555U 22051Y   24063.67618113  .00001033  00000-0  82992-4 0  9991,2 52555  53.2171 193.2891 0001441  98.5962 261.5193 15.08843255100330,6917.87,95.437,540.732,538.739,0.0
52555.0,STARLINK-3949,PAYLOAD,2024-03-04 12:53:41,15.08857944,0.0001522,53.2183,189.4257,86.542,273.5747,0.00022025,3.221e-05,0.0,0 STARLINK-3949,1 52555U 22051Y   24064.53728651  .00003221  00000-0  22025-3 0  9997,2 52555  53.2183 189.4257 0001522  86.5420 273.5747 15.08857944100532,6917.826,95.436,540.743,538.638,0.0
52555.0,STARLINK-3949,PAYLOAD,2024-03-04 14:29:04,15.08857347,0.0001883,53.2181,189.1288,62.0372,298.081,0.00021625,3.157e-05,0.0,0 STARLINK-3949,1 52555U 22051Y   24064.60352820  .00003157  00000-0  21625-3 0  9999,2 52555  53.2181 189.1288 0001883  62.0372 298.0810 15.08857347100479,6917.827,95.436,540.995,538.39,0.0
52555.0,STARLINK-3949,PAYLOAD,2024-03-04 16:04:26,15.08871271,0.0001637,53.2183,188.8315,66.6669,293.4496,0.00033605,5.069e-05,0.0,0 STARLINK-3949,1 52555U 22051Y   24064.66975575  .00005069  00000-0  33605-3 0  9998,2 52555  53.2183 188.8315 0001637  66.6669 293.4496 15.08871271100554,6917.785,95.436,540.782,538.517,0.0
52555.0,STARLINK-3949,PAYLOAD,2024-03-05 14:19:56,15.08797575,0.0001511,53.218,184.6675,82.3525,277.7639,-0.00034444,-5.759e-05,0.0,0 STARLINK-3949,1 52555U 22051Y   24065.59718306 -.00005759  00000-0 -34444-3 0  9998,2 52555  53.2180 184.6675 0001511  82.3525 277.7639 15.08797575100627,6918.01,95.44,540.92,538.83,0.0
52555.0,STARLINK-3949,PAYLOAD,2024-03-05 19:06:06,15.08795228,0.0001548,53.2179,183.7762,93.7805,266.3364,-0.0003384,-5.663e-05,0.0,0 STARLINK-3949,1 52555U 22051Y   24065.79590848 -.00005663  00000-0 -33840-3 0  9992,2 52555  53.2179 183.7762 0001548  93.7805 266.3364 15.08795228100722,6918.017,95.44,540.953,538.811,0.0
52555.0,STARLINK-3949,PAYLOAD,2024-03-06 10:59:54,15.08850279,0.0001197,53.2172,180.8022,85.9278,274.1851,-0.00017446,-3.064e-05,0.0,0 STARLINK-3949,1 52555U 22051Y   24066.45827101 -.00003064  00000-0 -17446-3 0  9998,2 52555  53.2172 180.8022 0001197  85.9278 274.1851 15.08850279100826,6917.849,95.437,540.542,538.886,0.0
52555.0,STARLINK-3949,PAYLOAD,2024-03-06 14:10:39,15.08862505,0.0001768,53.2175,180.207,115.9996,244.1178,0.00011055,1.473e-05,0.0,0 STARLINK-3949,1 52555U 22051Y   24066.59073456  .00001473  00000-0  11055-3 0  9999,2 52555  53.2175 180.2070 0001768 115.9996 244.1178 15.08862505100779,6917.812,95.436,540.9,538.454,0.0
52555.0,STARLINK-3949,PAYLOAD,2024-03-07 14:01:31,15.08779816,0.0001472,53.2169,175.7463,100.5724,259.5434,-3.2628e-05,-8.06e-06,0.0,0 STARLINK-3949,1 52555U 22051Y   24067.58439228 -.00000806  00000-0 -32628-4 0  9993,2 52555  53.2169 175.7463 0001472 100.5724 259.5434 15.08779816100922,6918.064,95.441,540.948,538.911,0.0
52555.0,STARLINK-3949,PAYLOAD,2024-03-08 10:41:28,15.08852074,0.0001394,53.2167,171.8796,112.9702,247.1438,-5.2107e-05,-1.117e-05,0.0,0 STARLINK-3949,1 52555U 22051Y   24068.44547075 -.00001117  00000-0 -52107-4 0  9999,2 52555  53.2167 171.8796 0001394 112.9702 247.1438 15.08852074101120,6917.843,95.437,540.673,538.744,0.0
52555.0,STARLINK-3949,PAYLOAD,2024-03-08 13:52:14,15.0884987,0.0001559,53.2173,171.2878,108.7291,251.387,-8.2465e-06,-4.19e-06,0.0,0 STARLINK-3949,1 52555U 22051Y   24068.57795084 -.00000419  00000-0 -82465-5 0  9993,2 52555  53.2173 171.2878 0001559 108.7291 251.3870 15.08849870101072,6917.85,95.437,540.794,538.637,0.0
52555.0,STARLINK-3949,PAYLOAD,2024-03-09 05:46:07,15.08827737,0.0001606,53.2164,168.3127,99.012,261.1054,2.3203e-06,-2.51e-06,0.0,0 STARLINK-3949,1 52555U 22051Y   24069.24035985 -.00000251  00000-0  23203-5 0  9993,2 52555  53.2164 168.3127 0001606  99.0120 261.1054 15.08827737101242,6917.918,95.438,540.894,538.672,0.0
52555.0,STARLINK-3949,PAYLOAD,2024-03-09 13:43:02,15.08827191,0.0001411,53.2179,166.828,106.5569,253.5578,1.9775e-05,2.7e-07,0.0,0 STARLINK-3949,1 52555U 22051Y   24069.57156064  .00000027  00000-0  19775-4 0  9999,2 52555  53.2179 166.8280 0001411 106.5569 253.5578 15.08827191101224,6917.92,95.438,540.761,538.808,0.0
52555.0,STARLINK-3949,PAYLOAD,2024-03-09 23:15:19,15.08869812,0.0001458,53.218,165.0396,83.7236,276.3922,-0.00035099,-5.874e-05,0.0,0 STARLINK-3949,1 52555U 22051Y   24069.96897826 -.00005874  00000-0 -35099-3 0  9993,2 52555  53.2180 165.0396 0001458  83.7236 276.3922 15.08869812101359,6917.789,95.436,540.663,538.646,0.0
52555.0,STARLINK-3949,PAYLOAD,2024-03-10 11:58:26,15.08834013,0.0001565,53.2182,162.6632,91.227,268.8902,6.7723e-06,-1.8e-06,0.0,0 STARLINK-3949,1 52555U 22051Y   24070.49892032 -.00000180  00000-0  67723-5 0  9992,2 52555  53.2182 162.6632 0001565  91.2270 268.8902 15.08834013101436,6917.899,95.438,540.846,538.681,0.0
52555.0,STARLINK-3949,PAYLOAD,2024-03-10 15:09:14,15.08786229,0.0001794,53.2183,162.0647,84.6023,275.5173,0.00076331,0.00011863,0.0,0 STARLINK-3949,1 52555U 22051Y   24070.63141652  .00011863  00000-0  76331-3 0  9995,2 52555  53.2183 162.0647 0001794  84.6023 275.5173 15.08786229101455,6918.045,95.441,541.151,538.669,0.0
52555.0,STARLINK-3949,PAYLOAD,2024-03-10 23:06:07,15.08851568,0.0001368,53.2173,160.5805,85.2136,274.9012,5.1368e-05,5.3e-06,0.0,0 STARLINK-3949,1 52555U 22051Y   24070.96258624  .00000530  00000-0  51368-4 0  9992,2 52555  53.2173 160.5805 0001368  85.2136 274.9012 15.08851568101502,6917.845,95.437,540.656,538.764,0.0
52555.0,STARLINK-3949,PAYLOAD,2024-03-11 11:49:13,15.08835672,0.0001308,53.2166,158.2026,96.0644,264.0497,0.00015476,2.176e-05,0.0,0 STARLINK-3949,1 52555U 22051Y   24071.49251403  .00002176  00000-0  15476-3 0  9996,2 52555  53.2166 158.2026 0001308  96.0644 264.0497 15.08835672101584,6917.894,95.438,540.663,538.854,0.0
52555.0,STARLINK-3949,PAYLOAD,2024-03-12 11:40:00,15.08839026,0.0001752,53.219,153.7388,95.6575,264.4617,0.00011046,1.47e-05,0.0,0 STARLINK-3949,1 52555U 22051Y   24072.48611443  .00001470  00000-0  11046-3 0  9995,2 52555  53.2190 153.7388 0001752  95.6575 264.4617 15.08839026101667,6917.883,95.438,540.96,538.536,0.0
52555.0,STARLINK-3949,PAYLOAD,2024-03-13 05:09:15,15.08814267,0.0001451,53.2192,150.4695,102.921,257.1944,0.00039523,6.003e-05,0.0,0 STARLINK-3949,1 52555U 22051Y   24073.21476104  .00006003  00000-0  39523-3 0  9997,2 52555  53.2192 150.4695 0001451 102.9210 257.1944 15.08814267101840,6917.959,95.439,540.828,538.82,0.0
52555.0,STARLINK-3949,PAYLOAD,2024-03-13 11:30:47,15.08817026,0.0001355,53.2188,149.2802,102.3693,257.7451,0.00039355,5.977e-05,0.0,0 STARLINK-3949,1 52555U 22051Y   24073.47972203  .00005977  00000-0  39355-3 0  9998,2 52555  53.2188 149.2802 0001355 102.3693 257.7451 15.08817026101815,6917.951,95.439,540.753,538.878,0.0
52555.0,STARLINK-3949,PAYLOAD,2024-03-13 14:41:33,15.08842626,0.0001527,53.2188,148.6852,100.4943,259.6221,4.0175e-05,3.51e-06,0.0,0 STARLINK-3949,1 52555U 22051Y   24073.61219213  .00000351  00000-0  40175-4 0  9993,2 52555  53.2188 148.6852 0001527 100.4943 259.6221 15.08842626101901,6917.872,95.437,540.794,538.681,0.0
52555.0,STARLINK-3949,PAYLOAD,2024-03-14 05:00:01,15.08839917,0.0001422,53.2175,146.0084,100.4045,259.7108,7.5805e-05,9.19e-06,0.0,0 STARLINK-3949,1 52555U 22051Y   24074.20835174  .00000919  00000-0  75805-4 0  9997,2 52555  53.2175 146.0084 0001422 100.4045 259.7108 15.08839917101929,6917.881,95.438,540.729,538.762,0.0
52555.0,STARLINK-3949,PAYLOAD,2024-03-14 09:46:11,15.08839039,0.0001348,53.2168,145.116,99.1393,260.9752,6.5902e-05,7.61e-06,0.0,0 STARLINK-3949,1 52555U 22051Y   24074.40707253  .00000761  00000-0  65902-4 0  9997,2 52555  53.2168 145.1160 0001348  99.1393 260.9752 15.08839039101950,6917.883,95.438,540.681,538.816,0.0
52555.0,STARLINK-3949,PAYLOAD,2024-03-15 11:12:21,15.08838134,0.000125,53.2166,140.3578,96.9602,263.1533,2.5279e-05,1.14e-06,0.0,0 STARLINK-3949,1 52555U 22051Y   24075.46691497  .00000114  00000-0  25279-4 0  9991,2 52555  53.2166 140.3578 0001250  96.9602 263.1533 15.08838134102181,6917.886,95.438,540.616,538.886,0.0
52555.0,STARLINK-3949,PAYLOAD,2024-03-16 11:03:08,15.08834371,0.0001329,53.2167,135.9001,104.0648,256.0492,2.4057e-05,9.5e-07,0.0,0 STARLINK-3949,1 52555U 22051Y   24076.46051896  .00000095  00000-0  24057-4 0  9996,2 52555  53.2167 135.9001 0001329 104.0648 256.0492 15.08834371102264,6917.898,95.438,540.682,538.843,0.0
52555.0,STARLINK-3949,PAYLOAD,2024-03-17 02:57:00,15.08835429,0.0001292,53.2165,132.9246,100.6959,259.4178,5.249e-05,5.47e-06,0.0,0 STARLINK-3949,1 52555U 22051Y   24077.12291907  .00000547  00000-0  52490-4 0  9993,2 52555  53.2165 132.9246 0001292 100.6959 259.4178 15.08835429102438,6917.894,95.438,540.653,538.866,0.0
52555.0,STARLINK-3949,PAYLOAD,2024-03-17 12:29:19,15.08835669,0.000123,53.216,131.1414,91.779,268.3343,4.2313e-05,3.86e-06,0.0,0 STARLINK-3949,1 52555U 22051Y   24077.52035994  .00000386  00000-0  42313-4 0  9993,2 52555  53.2160 131.1414 0001230  91.7790 268.3343 15.08835669102424,6917.894,95.438,540.61,538.908,0.0
52555.0,STARLINK-3949,PAYLOAD,2024-03-18 12:20:06,15.08839593,0.0001353,53.2157,126.6803,88.0713,272.0435,0.00010389,1.366e-05,0.0,0 STARLINK-3949,1 52555U 22051Y   24078.51395927  .00001366  00000-0  10389-3 0  9994,2 52555  53.2157 126.6803 0001353  88.0713 272.0435 15.08839593102649,6917.882,95.438,540.683,538.811,0.0
